GLOBALSTAR M068 [-]     
1 32266U 07048D   23315.10266853 -.00000068  00000+0  20099-3 0  9990
2 32266  51.9890 282.6591 0000726 332.0155 108.3264 12.62770864744057
GLOBALSTAR M079 [+]     
1 37188U 10054A   23314.78873056 -.00000085  00000+0  10344-3 0  9992
2 37188  52.0016 118.7878 0001155  99.9753 274.4634 12.62269846602652
GLOBALSTAR M074 [+]     
1 37189U 10054B   23314.73548329 -.00000090  00000+0  76614-4 0  9999
2 37189  51.9992 118.3620 0000946 103.3155 269.5939 12.62271916603259
GLOBALSTAR M076 [+]     
1 37190U 10054C   23314.76218870 -.00000075  00000+0  15825-3 0  9998
2 37190  52.0006 118.4002 0001366 120.3739 252.9915 12.62263743602975
GLOBALSTAR M077 [+]     
1 37191U 10054D   23314.59065453 -.00000098  00000+0  31492-4 0  9991
2 37191  52.0069  75.6097 0000733 116.8764 255.8646 12.62266368603327
GLOBALSTAR M075 [+]     
1 37192U 10054E   23314.85578947 -.00000046  00000+0  32324-3 0  9995
2 37192  51.9929 160.7014 0001094  84.4052 293.1180 12.62267506602217
GLOBALSTAR M073 [+]     
1 37193U 10054F   23314.61684181 -.00000113  00000+0 -53666-4 0  9997
2 37193  52.0059  74.7956 0000808 114.3942 258.6397 12.62269210604016
GLOBALSTAR M083 [+]     
1 37739U 11033A   23315.18520990 -.00000091  00000+0  70060-4 0  9992
2 37739  51.9883  22.5957 0000522  83.1527 295.0729 12.62262733573463
GLOBALSTAR M088 [+]     
1 37740U 11033B   23315.09273846 -.00000098  00000+0  31385-4 0  9993
2 37740  51.9742 288.8626 0000771  54.0712  23.1547 12.62267436568926
GLOBALSTAR M091 [+]     
1 37741U 11033C   23314.57239837 -.00000102  00000+0  12685-4 0  9996
2 37741  52.0001 252.9573 0001026  56.3742 114.4163 12.62268254569357
GLOBALSTAR M085 [+]     
1 37742U 11033D   23314.99958545 -.00000073  00000+0  17345-3 0  9991
2 37742  51.9859 203.2127 0001163  67.3737 306.0515 12.62265015570410
GLOBALSTAR M081 [+]     
1 37743U 11033E   23315.13844527 -.00000068  00000+0  20165-3 0  9991
2 37743  51.9949 205.2163 0001261  75.0034  89.7187 12.62266610570465
GLOBALSTAR M089 [+]     
1 37744U 11033F   23314.82797122 -.00000061  00000+0  23917-3 0  9996
2 37744  51.9909 160.4991 0001025 101.4998 271.7086 12.62269516570890
GLOBALSTAR M084 [+]     
1 38040U 11080A   23315.15850084 -.00000090  00000+0  78271-4 0  9998
2 38040  52.0030  26.4704 0000581 141.8600 233.0632 12.62267473549191
GLOBALSTAR M080 [+]     
1 38041U 11080B   23314.98188102 -.00000092  00000+0  65196-4 0  9998
2 38041  52.0084  28.4095 0000797 141.0212 271.0223 12.62265948549155
GLOBALSTAR M082 [+]     
1 38042U 11080C   23314.86269272 -.00000074  00000+0  16510-3 0  9999
2 38042  52.0096 344.1570 0000653  17.6062 153.7433 12.62267834549703
GLOBALSTAR M092 [+]     
1 38043U 11080D   23314.91269876 -.00000107  00000+0 -16639-4 0  9997
2 38043  52.0088  74.3452 0000671 141.7196  17.7474 12.62262517548169
GLOBALSTAR M090 [+]     
1 38044U 11080E   23314.94587272 -.00000072  00000+0  17574-3 0  9992
2 38044  51.9903 338.4641 0000481  50.2041  20.1923 12.62263322549871
GLOBALSTAR M086 [+]     
1 38045U 11080F   23314.40586062 -.00000070  00000+0  19046-3 0  9994
2 38045  51.9916 340.6157 0001290  98.4962 275.7686 12.62264144549718
GLOBALSTAR M097 [+]     
1 39072U 13005A   23314.27085456 -.00000101  00000+0  17730-4 0  9994
2 39072  52.0048 254.9786 0000986  57.0935 303.0026 12.62272499496945
GLOBALSTAR M093 [+]     
1 39073U 13005B   23314.56110234 -.00000098  00000+0  31958-4 0  9993
2 39073  51.9811 248.3340 0001259  58.7045 301.3945 12.62268598497058
GLOBALSTAR M094 [+]     
1 39074U 13005C   23315.03625632 -.00000064  00000+0  22277-3 0  9996
2 39074  51.9935 160.6855 0001220  85.1096 274.9910 12.62269751498624
GLOBALSTAR M096 [+]     
1 39075U 13005D   23315.12865537 -.00000070  00000+0  18953-3 0  9990
2 39075  52.0065 208.4627 0001241  68.4207 291.6792 12.62266051497881
GLOBALSTAR M078 [+]     
1 39076U 13005E   23315.10208960 -.00000103  00000+0  68735-5 0  9992
2 39076  51.9878 293.8460 0001020 353.1449   6.9403 12.62263009496360
GLOBALSTAR M095 [+]     
1 39077U 13005F   23314.33679570 -.00000095  00000+0  51429-4 0  9997
2 39077  51.9806 293.6649 0001018  23.7606 336.3307 12.62270550495913
GLOBALSTAR M087 [+]     
1 52888U 22064A   23314.57175362 -.00000094  00000+0  65947-4 0  9992
2 52888  51.9759 254.1592 0009361 163.0920 197.0294 13.37557539 68135
